{
  "norad_id": 66423,
  "name": "STARLINK-35618",
  "history": [
    {
      "epoch": "2026-03-28T05:16:07.284864Z",
      "apogee_km": 483.2052607261103,
      "perigee_km": 482.8081377287999,
      "latitude_deg": 5.620632143776943e-06,
      "longitude_deg": -94.8318606866005,
      "height_km": 482.66443562186413,
      "semi_major_axis_km": 6861.143699227455,
      "eccentricity": 2.894e-05,
      "inclination_deg": 43.0008,
      "raan_deg": 169.8416,
      "arg_perigee_deg": 306.4642,
      "mean_anomaly_deg": 53.6183,
      "mean_motion_rev_day": 15.27594159
    }
  ]
}